NORAD_CAT_ID,OBJECT_NAME,OBJECT_TYPE,EPOCH,MEAN_MOTION,ECCENTRICITY,INCLINATION,RA_OF_ASC_NODE,ARG_OF_PERICENTER,MEAN_ANOMALY,BSTAR,MEAN_MOTION_DOT,MEAN_MOTION_DDOT,TLE_LINE0,TLE_LINE1,TLE_LINE2,SEMIMAJOR_AXIS,PERIOD,APOGEE,PERIGEE,DECAYED
55776.0,STARLINK-5810,PAYLOAD,2023-11-02 22:17:34,14.98341973,0.0002752,70.0012,226.9782,281.6745,78.4106,6.2698e-05,6.55e-06,0.0,0 STARLINK-5810,1 55776U 23028AM  23306.92887545  .00000655  00000-0  62698-4 0  9998,2 55776  70.0012 226.9782 0002752 281.6745  78.4106 14.98341973 38058,6950.156,96.106,573.934,570.108,0.0
55776.0,STARLINK-5810,PAYLOAD,2023-11-03 04:42:03,14.98379971,0.000304,70.0003,226.3054,272.8046,87.2765,0.0003787,4.434e-05,0.0,0 STARLINK-5810,1 55776U 23028AM  23307.19587606  .00004434  00000-0  37870-3 0  9995,2 55776  70.0003 226.3054 0003040 272.8046  87.2765 14.98379971 38093,6950.038,96.104,574.016,569.791,0.0
55776.0,STARLINK-5810,PAYLOAD,2023-11-03 19:07:20,14.98319137,0.0002916,70.0003,224.7908,274.2644,85.8182,-5.2684e-05,-7.21e-06,0.0,0 STARLINK-5810,1 55776U 23028AM  23307.79676245 -.00000721  00000-0 -52684-4 0  9997,2 55776  70.0003 224.7908 0002916 274.2644  85.8182 14.98319137 38189,6950.226,96.108,574.118,570.065,0.0
55776.0,STARLINK-5810,PAYLOAD,2023-11-03 22:19:37,14.98307958,0.0003212,70.0004,224.4542,270.0017,90.0774,-0.00018885,-2.344e-05,0.0,0 STARLINK-5810,1 55776U 23028AM  23307.93029259 -.00002344  00000-0 -18885-3 0  9997,2 55776  70.0004 224.4542 0003212 270.0017  90.0774 14.98307958 38205,6950.261,96.108,574.358,569.894,0.0
55776.0,STARLINK-5810,PAYLOAD,2023-11-04 04:44:09,14.98314932,0.0003109,70.0003,223.7805,266.1645,93.9159,-0.0002061,-2.55e-05,0.0,0 STARLINK-5810,1 55776U 23028AM  23308.19733074 -.00002550  00000-0 -20610-3 0  9991,2 55776  70.0003 223.7805 0003109 266.1645  93.9159 14.98314932 38249,6950.239,96.108,574.265,569.944,0.0
55776.0,STARLINK-5810,PAYLOAD,2023-11-04 20:45:29,14.98344686,0.0002301,70.0,222.0965,275.1186,84.9711,-0.00048086,-5.828e-05,0.0,0 STARLINK-5810,1 55776U 23028AM  23308.86492461 -.00005828  00000-0 -48086-3 0  9995,2 55776  70.0000 222.0965 0002301 275.1186  84.9711 14.98344686 38342,6950.147,96.106,573.612,570.413,0.0
55776.0,STARLINK-5810,PAYLOAD,2023-11-04 22:21:37,14.98346661,0.000227,70.0003,221.9285,275.6685,84.4215,-0.00044337,-5.381e-05,0.0,0 STARLINK-5810,1 55776U 23028AM  23308.93168186 -.00005381  00000-0 -44337-3 0  9996,2 55776  70.0003 221.9285 0002270 275.6685  84.4215 14.98346661 38352,6950.141,96.106,573.584,570.429,0.0
55776.0,STARLINK-5810,PAYLOAD,2023-11-05 03:09:59,14.98407102,0.0002151,70.0017,221.4266,256.956,103.1359,-0.0013214,-0.00015855,0.0,0 STARLINK-5810,1 55776U 23028AM  23309.13194139 -.00015855  00000-0 -13214-2 0  9992,2 55776  70.0017 221.4266 0002151 256.9560 103.1359 14.98407102 38382,6949.954,96.102,573.314,570.325,0.0
55776.0,STARLINK-5810,PAYLOAD,2023-11-05 11:10:40,14.98354915,0.000303,70.0005,220.5843,265.9648,94.1165,-0.00025538,-3.141e-05,0.0,0 STARLINK-5810,1 55776U 23028AM  23309.46574469 -.00003141  00000-0 -25538-3 0  9994,2 55776  70.0005 220.5843 0003030 265.9648  94.1165 14.98354915 38437,6950.116,96.105,574.087,569.875,0.0
55776.0,STARLINK-5810,PAYLOAD,2023-11-05 22:23:36,14.98336789,0.0002628,70.0014,219.4063,262.1023,97.9838,0.00041076,4.812e-05,0.0,0 STARLINK-5810,1 55776U 23028AM  23309.93305788  .00004812  00000-0  41076-3 0  9991,2 55776  70.0014 219.4063 0002628 262.1023  97.9838 14.98336789 38501,6950.172,96.107,573.863,570.21,0.0
55776.0,STARLINK-5810,PAYLOAD,2023-11-06 03:11:58,14.9835657,0.0002633,70.001,218.9011,266.6714,93.4144,0.00059478,7.016e-05,0.0,0 STARLINK-5810,1 55776U 23028AM  23310.13331863  .00007016  00000-0  59478-3 0  9992,2 55776  70.0010 218.9011 0002633 266.6714  93.4144 14.98356570 38530,6950.111,96.105,573.806,570.146,0.0
55776.0,STARLINK-5810,PAYLOAD,2023-11-06 04:48:06,14.98357014,0.0002792,70.001,218.7308,259.349,100.7354,0.00062389,7.364e-05,0.0,0 STARLINK-5810,1 55776U 23028AM  23310.20007488  .00007364  00000-0  62389-3 0  9994,2 55776  70.0010 218.7308 0002792 259.3490 100.7354 14.98357014 38543,6950.109,96.105,573.915,570.034,0.0
55776.0,STARLINK-5810,PAYLOAD,2023-11-06 19:13:23,14.98317652,0.0002677,70.0017,217.2186,251.7218,108.365,-0.00012411,-1.573e-05,0.0,0 STARLINK-5810,1 55776U 23028AM  23310.80096101 -.00001573  00000-0 -12411-3 0  9999,2 55776  70.0017 217.2186 0002677 251.7218 108.3650 14.98317652 38631,6950.231,96.108,573.957,570.235,0.0
55776.0,STARLINK-5810,PAYLOAD,2023-11-06 22:25:39,14.9831838,0.0002706,70.0007,216.8813,242.2598,117.8286,-0.00014544,-1.827e-05,0.0,0 STARLINK-5810,1 55776U 23028AM  23310.93448131 -.00001827  00000-0 -14544-3 0  9998,2 55776  70.0007 216.8813 0002706 242.2598 117.8286 14.98318380 38652,6950.229,96.108,573.975,570.213,0.0
55776.0,STARLINK-5810,PAYLOAD,2023-11-07 11:14:44,14.98319243,0.0002909,70.0011,215.535,272.3401,87.7425,-0.00021967,-2.712e-05,0.0,0 STARLINK-5810,1 55776U 23028AM  23311.46856689 -.00002712  00000-0 -21967-3 0  9999,2 55776  70.0011 215.5350 0002909 272.3401  87.7425 14.98319243 38739,6950.226,96.108,574.113,570.069,0.0
55776.0,STARLINK-5810,PAYLOAD,2023-11-07 19:15:24,14.98321648,0.0003109,70.001,214.694,271.3701,88.7102,-0.00025969,-3.19e-05,0.0,0 STARLINK-5810,1 55776U 23028AM  23311.80236747 -.00003190  00000-0 -25969-3 0  9991,2 55776  70.0010 214.6940 0003109 271.3701  88.7102 14.98321648 38788,6950.219,96.108,574.245,569.923,0.0
55776.0,STARLINK-5810,PAYLOAD,2023-11-08 03:16:04,14.98334384,0.00024,70.0012,213.8533,267.5543,92.5341,-0.00024958,-3.07e-05,0.0,0 STARLINK-5810,1 55776U 23028AM  23312.13616106 -.00003070  00000-0 -24958-3 0  9993,2 55776  70.0012 213.8533 0002400 267.5543  92.5341 14.98334384 38838,6950.179,96.107,573.712,570.376,0.0
55776.0,STARLINK-5810,PAYLOAD,2023-11-08 22:29:40,14.98317738,0.0003011,70.0003,211.8314,277.7337,82.348,0.00023849,2.753e-05,0.0,0 STARLINK-5810,1 55776U 23028AM  23312.93727884  .00002753  00000-0  23849-3 0  9990,2 55776  70.0003 211.8314 0003011 277.7337  82.3480 14.98317738 38954,6950.231,96.108,574.189,570.003,0.0
55776.0,STARLINK-5810,PAYLOAD,2023-11-09 03:18:04,14.98322839,0.0003034,70.0008,211.3277,272.7395,87.3417,0.00029742,3.457e-05,0.0,0 STARLINK-5810,1 55776U 23028AM  23313.13755461  .00003457  00000-0  29742-3 0  9995,2 55776  70.0008 211.3277 0003034 272.7395  87.3417 14.98322839 38982,6950.215,96.107,574.189,569.971,0.0
55776.0,STARLINK-5810,PAYLOAD,2023-11-09 17:43:18,14.9832234,0.0002313,70.0021,209.8162,270.6836,89.4058,0.00013217,1.484e-05,0.0,0 STARLINK-5810,1 55776U 23028AM  23313.73840329  .00001484  00000-0  13217-3 0  9997,2 55776  70.0021 209.8162 0002313 270.6836  89.4058 14.98322340 39070,6950.217,96.107,573.689,570.474,0.0
55776.0,STARLINK-5810,PAYLOAD,2023-11-09 22:31:42,14.98310024,0.0003082,70.0017,209.311,251.1702,108.9123,0.0002919,3.39e-05,0.0,0 STARLINK-5810,1 55776U 23028AM  23313.93868611  .00003390  00000-0  29190-3 0  9998,2 55776  70.0017 209.3110 0003082 251.1702 108.9123 14.98310024 39103,6950.255,96.108,574.262,569.978,0.0
55776.0,STARLINK-5810,PAYLOAD,2023-11-10 03:20:06,14.98322626,0.000268,70.0006,208.8018,266.3837,93.7016,7.6254e-05,8.17e-06,0.0,0 STARLINK-5810,1 55776U 23028AM  23314.13896614  .00000817  00000-0  76254-4 0  9990,2 55776  70.0006 208.8018 0002680 266.3837  93.7016 14.98322626 39138,6950.216,96.107,573.943,570.218,0.0
55776.0,STARLINK-5810,PAYLOAD,2023-11-10 19:21:26,14.98336365,0.0002809,70.0002,207.1185,266.4057,93.6781,-5.7077e-05,-7.74e-06,0.0,0 STARLINK-5810,1 55776U 23028AM  23314.80656112 -.00000774  00000-0 -57077-4 0  9997,2 55776  70.0002 207.1185 0002809 266.4057  93.6781 14.98336365 39233,6950.173,96.107,573.991,570.086,0.0
55776.0,STARLINK-5810,PAYLOAD,2023-11-10 22:33:42,14.98336312,0.0002567,70.0004,206.7822,255.7568,104.3306,-6.389e-05,-8.55e-06,0.0,0 STARLINK-5810,1 55776U 23028AM  23314.94008061 -.00000855  00000-0 -63890-4 0  9996,2 55776  70.0004 206.7822 0002567 255.7568 104.3306 14.98336312 39254,6950.173,96.107,573.822,570.254,0.0
55776.0,STARLINK-5810,PAYLOAD,2023-11-11 09:46:39,14.9833525,0.000268,70.0003,205.6034,268.4276,91.6576,-7.1399e-05,-9.45e-06,0.0,0 STARLINK-5810,1 55776U 23028AM  23315.40740022 -.00000945  00000-0 -71399-4 0  9991,2 55776  70.0003 205.6034 0002680 268.4276  91.6576 14.98335250 39324,6950.177,96.107,573.904,570.179,0.0
55776.0,STARLINK-5810,PAYLOAD,2023-11-11 19:23:27,14.9833039,0.0002786,70.0004,204.5931,272.974,87.1101,4.7292e-05,4.71e-06,0.0,0 STARLINK-5810,1 55776U 23028AM  23315.80796034  .00000471  00000-0  47292-4 0  9996,2 55776  70.0004 204.5931 0002786 272.9740  87.1101 14.98330390 39382,6950.192,96.107,573.993,570.12,0.0
55776.0,STARLINK-5810,PAYLOAD,2023-11-11 22:35:43,14.98329737,0.0002981,70.0004,204.2568,274.5778,85.5041,3.6622e-05,3.44e-06,0.0,0 STARLINK-5810,1 55776U 23028AM  23315.94148085  .00000344  00000-0  36622-4 0  9992,2 55776  70.0004 204.2568 0002981 274.5778  85.5041 14.98329737 39402,6950.194,96.107,574.131,569.987,0.0
55776.0,STARLINK-5810,PAYLOAD,2023-11-12 01:48:00,14.98328455,0.0002848,70.0004,203.9202,270.6525,89.4308,3.4865e-05,3.23e-06,0.0,0 STARLINK-5810,1 55776U 23028AM  23316.07500193  .00000323  00000-0  34865-4 0  9993,2 55776  70.0004 203.9202 0002848 270.6525  89.4308 14.98328455 39429,6950.198,96.107,574.042,570.083,0.0
55776.0,STARLINK-5810,PAYLOAD,2023-11-12 19:25:28,14.98330999,0.0002694,70.0,202.0681,263.3256,96.7596,-9.9709e-06,-2.12e-06,0.0,0 STARLINK-5810,1 55776U 23028AM  23316.80936058 -.00000212  00000-0 -99709-5 0  9995,2 55776  70.0000 202.0681 0002694 263.3256  96.7596 14.98330999 39533,6950.19,96.107,573.927,570.182,0.0
55776.0,STARLINK-5810,PAYLOAD,2023-11-12 22:37:44,14.98330771,0.0002869,69.9998,201.7313,269.1458,90.9372,-1.2786e-05,-2.46e-06,0.0,0 STARLINK-5810,1 55776U 23028AM  23316.94288084 -.00000246  00000-0 -12786-4 0  9995,2 55776  69.9998 201.7313 0002869 269.1458  90.9372 14.98330771 39554,6950.191,96.107,574.05,570.061,0.0
